[{"OBJECT_NAME":"JB-3 3 (ZY 2C)","OBJECT_ID":"2004-044A","EPOCH":"2026-03-09T22:02:57.764832","MEAN_MOTION":15.18506021,"ECCENTRICITY":0.00333938,"INCLINATION":97.2622,"RA_OF_ASC_NODE":226.2642,"ARG_OF_PERICENTER":206.2478,"MEAN_ANOMALY":153.7066,"EPHEMERIS_TYPE":0,"CLASSIFICATION_TYPE":"U","NORAD_CAT_ID":28470,"ELEMENT_SET_NO":999,"REV_AT_EPOCH":17271,"BSTAR":0.00032413866,"MEAN_MOTION_DOT":6.719e-5,"MEAN_MOTION_DDOT":0},{"OBJECT_NAME":"STARLINK-4157","OBJECT_ID":"2022-076BB","EPOCH":"2026-03-09T06:52:27.258240","MEAN_MOTION":15.08838961,"ECCENTRICITY":0.00014423,"INCLINATION":53.2176,"RA_OF_ASC_NODE":75.9297,"ARG_OF_PERICENTER":87.7,"MEAN_ANOMALY":272.4158,"EPHEMERIS_TYPE":0,"CLASSIFICATION_TYPE":"U","NORAD_CAT_ID":53035,"ELEMENT_SET_NO":999,"REV_AT_EPOCH":20306,"BSTAR":-2.6227747e-5,"MEAN_MOTION_DOT":-7.05e-6,"MEAN_MOTION_DDOT":0}]
